#aV2009 10 12  0  0   .00000000      96 DD+AD WGS84 FIT  NGA
## 1553  86400.00000000   900.00000000 55116  .0000000000000
+   32     1  2  3  4  5  6  7  8  9 10 11 12 13 14 15 16 17
+         18 19 20 21 22 23 24 25 26 27 28 29 30 31 32  0  0
+          0  0  0  0  0  0  0  0  0  0  0  0  0  0  0  0  0
+          0  0  0  0  0  0  0  0  0  0  0  0  0  0  0  0  0
+          0  0  0  0  0  0  0  0  0  0  0  0  0  0  0  0  0
++         0  0  0  0  0  0  0  0  0  0  0  0  0  0  0  0  0
++         0  0  0  0  0  0  0  0  0  0  0  0  0  0  0  0  0
++         0  0  0  0  0  0  0  0  0  0  0  0  0  0  0  0  0
++         0  0  0  0  0  0  0  0  0  0  0  0  0  0  0  0  0
++         0  0  0  0  0  0  0  0  0  0  0  0  0  0  0  0  0
%c cc cc ccc ccc cccc cccc cccc cccc ccccc ccccc ccccc ccccc
%c cc cc ccc ccc cccc cccc cccc cccc ccccc ccccc ccccc ccccc
%f  0.0000000  0.000000000  0.00000000000  0.000000000000000
%f  0.0000000  0.000000000  0.00000000000  0.000000000000000
%i    0    0    0    0      0      0      0      0         0
%i    0    0    0    0      0      0      0      0         0
/*      NGA, ST. LOUIS,MO.                                  
/*   EPHEMERIS COMPUTED FROM  3 DAYS OF DATA                
/* CCCCCCCCCCCCCCCCCCCCCCCCCCCCCCCCCCCCCCCCCCCCCCCCCCCCCCCCC
/* CCCCCCCCCCCCCCCCCCCCCCCCCCCCCCCCCCCCCCCCCCCCCCCCCCCCCCCCC
*  2009 10 12 18 45   .00000000                                                 
P  1 -17617.560751  17523.766037  -9337.447987    -60.145768                    
V  1 -11478.722231   3572.437886  28776.310208      -.013174                    
P  2 -13318.895909 -14306.546390 -18238.137401    180.387202                    
V  2   1530.619474 -22930.647063  16509.704022       .036029                    
P  3  24798.619938   9876.219531   1446.204082    459.720373                    
V  3    567.939295   4190.161621 -30682.762879       .051110                    
P  4  -7988.340924 -22470.616393 -11439.947002   -307.873160                    
V  4   3408.801497 -14427.338543  26668.631393      -.176976                    
P  5 -21312.588840   -697.063057 -15889.211774    -67.066255                    
V  5  16596.205832 -11543.777225 -21698.630268       .089269                    
P  6  23215.178470  12974.680768   -762.344761    252.046837                    
V  6  -2725.157060   2611.463579 -31070.890564       .043526                    
P  7   7489.394418 -23160.007209 -10459.273625      9.742815                    
V  7   2174.488797  13326.811422 -28142.703469      -.007307                    
P  8    616.669027 -26175.292657   2116.947910   -224.927276                    
V  8   2511.280161  -2581.138771 -32606.000028      -.017368                    
P  9 -13807.878175   7564.936008  20722.744714     82.631385                    
V  9  -1314.855747 -27797.924927   9042.002637       .020799                    
P 10 -19968.303420  -3399.510823 -17510.118510    -25.709080                    
V 10  18547.714026 -11570.640740 -18748.298919      -.009795                    
P 11  13944.484048 -10759.323556  19573.834431    -23.916709                    
V 11   6996.648816  24852.894850   8943.461796      -.018386                    
P 12 -24002.809908  10770.747294   3162.835721   -205.450735                    
V 12   2177.827956  -4251.174647  31659.869851       .054844                    
P 13   6656.341829 -13009.595912 -22302.124239    305.571230                    
V 13  23141.836666  15624.537943  -2236.323430       .002844                    
P 14   9848.194197  18990.524204  15961.906284    -38.593700                    
V 14 -17357.797419  -9835.670243  22475.797898       .050370                    
P 15 -23970.267036  -5462.895627  10178.970858   -320.076714                    
V 15  -9878.408743  -8637.651193 -27901.228351      -.004302                    
P 16  15812.554338   7230.582769 -20102.594490      3.199062                    
V 16 -22136.520214  12751.953599 -12556.243372      -.040180                    
P 17 -10198.077834 -19138.326154  15542.236751     92.556177                    
V 17  17566.586686   8727.201848  22180.005353       .032589                    
P 18 -12239.415848  18482.365375  14597.742352     19.684658                    
V 18 -17481.202567   6109.313837 -23159.992728       .028077                    
P 19  23066.450222   5680.384718  12201.083509      6.622593                    
V 19  11287.974706  10605.770336 -26099.442194      -.018094                    
P 20  22610.934965 -13882.870621   -450.033362     70.142165                    
V 20   2172.939844   2803.492790  31308.120451      -.008873                    
P 21  -5238.747779  24892.360888  -6122.272897    -14.708381                    
V 21  -3854.053730  -8423.338818 -30202.135392      -.023189                    
P 22     13.393082  16992.368619  20563.403790    188.828833                    
V 22 -23417.541817  10974.469128  -9206.608250      -.008242                    
P 23  18606.381690  -3776.563244 -18731.148520    387.573574                    
V 23  19599.252070  13171.149905  16543.876025      -.004851                    
P 24 -13119.042171  15708.607984 -16943.419743    228.000010                    
V 24   -469.813888 -21748.683269 -19411.640490       .029609                    
P 25   9718.547683 -18336.352903 -16345.252628    628.800804                    
V 25   3341.386145  21096.884769 -21056.893072       .136858                    
P 26   1378.240550  16678.647945  19952.051130      8.286941                    
V 26 -22643.960675 -14016.941538  13402.338941      -.013652                    
P 27 -15061.907254   2533.409656  22417.926844     90.702174                    
V 27  -1324.722903 -26739.039619   2236.423955       .033927                    
P 28   2714.716505 -17232.943509  20377.923687    -25.925524                    
V 28  22652.009160 -10565.291372 -12527.331418       .001125                    
P 29  -9661.486660  11810.478253 -21644.112090     65.417652                    
V 29 -23303.383671 -14995.035576   2252.286565       .032122                    
P 30 -18298.576022  17761.995305  -7690.835018    184.331383                    
V 30  -9385.704490   2467.308113  29580.342710       .030682                    
P 31   8688.739376  21150.514100 -13177.011944    -63.023821                    
V 31  -2266.890480  17085.881128  25660.161798       .005943                    
P 32  24874.390578  -5949.017496   6961.685128    179.169556                    
V 32  -6495.001936   6034.942042  30297.089417      -.072967                    
EOF
